From: horizons@ssd.jpl.nasa.gov (Horizons Ephemeris System)
Subject: [Horizons] SMALL BODY #C(500@10)_T(Catalina (C/2018 M1)) (1/1)
Date: February 23, 2021 at 4:21:04 PM PST

Automated mail xmit by MAIL_REQUEST, PID= 22901 Tue Feb 23 16:21:04 2021
++++++++++++++++++++++++++++++++ (part 1 of 1)  +++++++++++++++++++++++++++++++
*******************************************************************************
JPL/HORIZONS                Catalina (C/2018 M1)           2021-Feb-23 16:21:04
Rec #:90004386 (+COV) Soln.date: 2020-May-20_00:54:31    # obs: 171 (2018-2019)

IAU76/J2000 helio. ecliptic osc. elements (au, days, deg., period=Julian yrs):

 EPOCH=  2458346.5 ! 2018-Aug-16.0000000 (TDB)    RMSW= n.a.
  EC= .9387000324892566   QR= 1.303479532255149   TP= 2458309.524439041
  OM= 339.4633087081097   W= 14.13278563654424    IN= 37.25702429842916
  A= 21.26395143727771    MA= .371666046243565    ADIST= 41.22442334230028
  PER= 98.055999750053    N= .010051667           ANGMOM= .027345688
  DAN= 1.32287            DDN= 28.1685            L= 350.7956888
  B= 8.5005226            MOID= .309039           TP= 2018-Jul-10.0244390410

Comet physical (GM= km^3/s^2; RAD= km):
  GM= n.a.                RAD= n.a.
  M1=  16.5     M2=  18.1     k1=  6.25   k2=  5.      PHCOF=  .030

COMET comments 
1: soln ref.= JPL#7, data arc: 2018-06-25 to 2019-01-17
2: k1=6.25, k2=5., phase coef.=0.03;
*******************************************************************************


*******************************************************************************
Ephemeris / MAIL_REQUEST Tue Feb 23 16:21:04 2021 Pasadena, USA  / Horizons
*******************************************************************************
Target body name: Catalina (C/2018 M1)            {source: JPL#7}
Center body name: Sun (10)                        {source: DE431}
Center-site name: BODY CENTER
*******************************************************************************
Start time      : A.D. 1990-Jan-01 00:00:00.0000 TDB
Stop  time      : A.D. 2020-Dec-31 00:00:00.0000 TDB
Step-size       : 10080 minutes
*******************************************************************************
Center geodetic : 0.00000000,0.00000000,0.0000000 {E-lon(deg),Lat(deg),Alt(km)}
Center cylindric: 0.00000000,0.00000000,0.0000000 {E-lon(deg),Dxy(km),Dz(km)}
Center radii    : 696000.0 x 696000.0 x 696000.0 k{Equator, meridian, pole}    
Small perturbers: Yes                             {source: SB431-N16}
Output units    : AU-D
Output type     : GEOMETRIC cartesian states
Output format   : 6 (LT, range, and range-rate)
Reference frame : Ecliptic of J2000.0
*******************************************************************************
Initial IAU76/J2000 heliocentric ecliptic osculating elements (au, days, deg.):
 EPOCH=  2458346.5 ! 2018-Aug-16.0000000 (TDB)    RMSW= n.a.                  
  EC= .9387000324892566   QR= 1.303479532255149   TP= 2458309.524439041       
  OM= 339.4633087081097   W= 14.13278563654424    IN= 37.25702429842916       
 Equivalent ICRF heliocentric equatorial cartesian coordinates (au, au/d):
  X= 1.194224310522929E+00  Y= 1.403119865661799E-01  Z= 7.350848717696673E-01
 VX=-4.838685275764688E-03 VY= 1.098923250756682E-02 VZ= 1.618150628579719E-02
Comet physical (GM= km^3/s^2; RAD= km):                                        
  GM= n.a.                RAD= n.a.                                           
  M1=  16.5     M2=  18.1     k1=  6.25   k2=  5.      PHCOF=  .030           
*******************************************************************************
           JDTDB,            Calendar Date (TDB),                     LT,                     RG,                     RR,
**************************************************************************************************************************
$$SOE
2455942.500000000, A.D. 2012-Jan-16 00:00:00.0000,  9.473731214825686E-02,  1.640325711245478E+01, -4.382468342616710E-03,
2455949.500000000, A.D. 2012-Jan-23 00:00:00.0000,  9.456000403320144E-02,  1.637255716400335E+01, -4.388949415794227E-03,
2455956.500000000, A.D. 2012-Jan-30 00:00:00.0000,  9.438243341994783E-02,  1.634181176539781E+01, -4.395454158138937E-03,
2455963.500000000, A.D. 2012-Feb-06 00:00:00.0000,  9.420459934539227E-02,  1.631102074988193E+01, -4.401982856461401E-03,
2455970.500000000, A.D. 2012-Feb-13 00:00:00.0000,  9.402650083730568E-02,  1.628018394911945E+01, -4.408535675616629E-03,
2455977.500000000, A.D. 2012-Feb-20 00:00:00.0000,  9.384813691813375E-02,  1.624930119385208E+01, -4.415112753097085E-03,
2455984.500000000, A.D. 2012-Feb-27 00:00:00.0000,  9.366950659757023E-02,  1.621837231261363E+01, -4.421714721296465E-03,
2455991.500000000, A.D. 2012-Mar-05 00:00:00.0000,  9.349060883668157E-02,  1.618739712551832E+01, -4.428343350711289E-03,
2455998.500000000, A.D. 2012-Mar-12 00:00:00.0000,  9.331144252506852E-02,  1.615637544030648E+01, -4.434999909802579E-03,
2456005.500000000, A.D. 2012-Mar-19 00:00:00.0000,  9.313200654611063E-02,  1.612530706364127E+01, -4.441683530967210E-03,
2456012.500000000, A.D. 2012-Mar-26 00:00:00.0000,  9.295229983118186E-02,  1.609419181049584E+01, -4.448393052843576E-03,
2456019.500000000, A.D. 2012-Apr-02 00:00:00.0000,  9.277232134575983E-02,  1.606302950174817E+01, -4.455127934905445E-03,
2456026.500000000, A.D. 2012-Apr-09 00:00:00.0000,  9.259207006992323E-02,  1.603181996080438E+01, -4.461887933189990E-03,
2456033.500000000, A.D. 2012-Apr-16 00:00:00.0000,  9.241154499227087E-02,  1.600056301254578E+01, -4.468672846046905E-03,
2456040.500000000, A.D. 2012-Apr-23 00:00:00.0000,  9.223074511027272E-02,  1.596925848338966E+01, -4.475482429525064E-03,
2456047.500000000, A.D. 2012-Apr-30 00:00:00.0000,  9.204966943256798E-02,  1.593790620168724E+01, -4.482316372578450E-03,
2456054.500000000, A.D. 2012-May-07 00:00:00.0000,  9.186831698192052E-02,  1.590650599823531E+01, -4.489174286887873E-03,
2456061.500000000, A.D. 2012-May-14 00:00:00.0000,  9.168668679804953E-02,  1.587505770676641E+01, -4.496055735847384E-03,
2456068.500000000, A.D. 2012-May-21 00:00:00.0000,  9.150477793581729E-02,  1.584356116363502E+01, -4.502960487935547E-03,
2456075.500000000, A.D. 2012-May-28 00:00:00.0000,  9.132258944296513E-02,  1.581201620396265E+01, -4.509889278804494E-03,
2456082.500000000, A.D. 2012-Jun-04 00:00:00.0000,  9.114012031358834E-02,  1.578042265358232E+01, -4.516843779645594E-03,
2456089.500000000, A.D. 2012-Jun-11 00:00:00.0000,  9.095736949658487E-02,  1.574878033050134E+01, -4.523824173874751E-03,
2456096.500000000, A.D. 2012-Jun-18 00:00:00.0000,  9.077433596945120E-02,  1.571708905767871E+01, -4.530829225910808E-03,
2456103.500000000, A.D. 2012-Jun-25 00:00:00.0000,  9.059101875305392E-02,  1.568534866558274E+01, -4.537858195183064E-03,
2456110.500000000, A.D. 2012-Jul-02 00:00:00.0000,  9.040741688387816E-02,  1.565355898738600E+01, -4.544910984093671E-03,
2456117.500000000, A.D. 2012-Jul-09 00:00:00.0000,  9.022352939584999E-02,  1.562171985581797E+01, -4.551987770405590E-03,
2456124.500000000, A.D. 2012-Jul-16 00:00:00.0000,  9.003935531344319E-02,  1.558983110197153E+01, -4.559088827055321E-03,
2456131.500000000, A.D. 2012-Jul-23 00:00:00.0000,  8.985489364938144E-02,  1.555789255490508E+01, -4.566214455175681E-03,
2456138.500000000, A.D. 2012-Jul-30 00:00:00.0000,  8.967014340427594E-02,  1.552590404157982E+01, -4.573364947400738E-03,
2456145.500000000, A.D. 2012-Aug-06 00:00:00.0000,  8.948510356753531E-02,  1.549386538701726E+01, -4.580540564028126E-03,
2456152.500000000, A.D. 2012-Aug-13 00:00:00.0000,  8.929977311798283E-02,  1.546177641440614E+01, -4.587741597783134E-03,
2456159.500000000, A.D. 2012-Aug-20 00:00:00.0000,  8.911415101556841E-02,  1.542963694366737E+01, -4.594968815168345E-03,
2456166.500000000, A.D. 2012-Aug-27 00:00:00.0000,  8.892823616576903E-02,  1.539744678529017E+01, -4.602224203134019E-03,
2456173.500000000, A.D. 2012-Sep-03 00:00:00.0000,  8.874202738445508E-02,  1.536520573424886E+01, -4.609509739616660E-03,
2456180.500000000, A.D. 2012-Sep-10 00:00:00.0000,  8.855552344858682E-02,  1.533291357878064E+01, -4.616825333518868E-03,
2456187.500000000, A.D. 2012-Sep-17 00:00:00.0000,  8.836872315746618E-02,  1.530057011099112E+01, -4.624170349782657E-03,
2456194.500000000, A.D. 2012-Sep-24 00:00:00.0000,  8.818162532341825E-02,  1.526817512524075E+01, -4.631544795814659E-03,
2456201.500000000, A.D. 2012-Oct-01 00:00:00.0000,  8.799422874961711E-02,  1.523572841430553E+01, -4.638949047911348E-03,
2456208.500000000, A.D. 2012-Oct-08 00:00:00.0000,  8.780653222206206E-02,  1.520322976798778E+01, -4.646383547338065E-03,
2456215.500000000, A.D. 2012-Oct-15 00:00:00.0000,  8.761853450985428E-02,  1.517067897316397E+01, -4.653848676832308E-03,
2456222.500000000, A.D. 2012-Oct-22 00:00:00.0000,  8.743023436871801E-02,  1.513807581439443E+01, -4.661344709114901E-03,
2456229.500000000, A.D. 2012-Oct-29 00:00:00.0000,  8.724163054613880E-02,  1.510542007481299E+01, -4.668871774716682E-03,
2456236.500000000, A.D. 2012-Nov-05 00:00:00.0000,  8.705272178734393E-02,  1.507271153716250E+01, -4.676429861975116E-03,
2456243.500000000, A.D. 2012-Nov-12 00:00:00.0000,  8.686350683844916E-02,  1.503994998433965E+01, -4.684019003447296E-03,
2456250.500000000, A.D. 2012-Nov-19 00:00:00.0000,  8.667398443245335E-02,  1.500713519696996E+01, -4.691639972893790E-03,
2456257.500000000, A.D. 2012-Nov-26 00:00:00.0000,  8.648415324728935E-02,  1.497426694614463E+01, -4.699294565311984E-03,
2456264.500000000, A.D. 2012-Dec-03 00:00:00.0000,  8.629401190402551E-02,  1.494134499310902E+01, -4.706983346745993E-03,
2456271.500000000, A.D. 2012-Dec-10 00:00:00.0000,  8.610355904256205E-02,  1.490836910236917E+01, -4.714705114428492E-03,
2456278.500000000, A.D. 2012-Dec-17 00:00:00.0000,  8.591279335152861E-02,  1.487533904686834E+01, -4.722458891919083E-03,
2456285.500000000, A.D. 2012-Dec-24 00:00:00.0000,  8.572171354560354E-02,  1.484225460405998E+01, -4.730244315135625E-03,
